NORAD_CAT_ID,OBJECT_NAME,OBJECT_TYPE,EPOCH,MEAN_MOTION,ECCENTRICITY,INCLINATION,RA_OF_ASC_NODE,ARG_OF_PERICENTER,MEAN_ANOMALY,BSTAR,MEAN_MOTION_DOT,MEAN_MOTION_DDOT,TLE_LINE0,TLE_LINE1,TLE_LINE2,SEMIMAJOR_AXIS,PERIOD,APOGEE,PERIGEE,DECAYED
52377.0,STARLINK-3805,PAYLOAD,2022-10-16 11:12:19,15.08844008,0.0002328,53.2197,356.6925,34.9961,325.1184,-8.4357e-05,-1.631e-05,0.0,0 STARLINK-3805,1 52377U 22045AY  22289.46688866 -.00001631  00000-0 -84357-4 0  9996,2 52377  53.2197 356.6925 0002328  34.9961 325.1184 15.08844008 28682,6917.868,95.437,541.344,538.123,0.0
52377.0,STARLINK-3805,PAYLOAD,2022-10-16 15:58:28,15.08838382,0.0002497,53.2209,355.8023,32.3531,327.7614,-2.1915e-05,-6.37e-06,0.0,0 STARLINK-3805,1 52377U 22045AY  22289.66560924 -.00000637  00000-0 -21915-4 0  9998,2 52377  53.2209 355.8023 0002497  32.3531 327.7614 15.08838382 28716,6917.885,95.438,541.4780000000002,538.023,0.0
52377.0,STARLINK-3805,PAYLOAD,2022-10-17 11:03:06,15.08835107,0.0002203,53.2206,352.2322,37.7055,322.4092,5.2418e-05,5.46e-06,0.0,0 STARLINK-3805,1 52377U 22045AY  22290.46049087  .00000546  00000-0  52418-4 0  9999,2 52377  53.2206 352.2322 0002203  37.7055 322.4092 15.08835107 28838,6917.895,95.438,541.284,538.236,0.0
52377.0,STARLINK-3805,PAYLOAD,2022-10-17 14:13:52,15.08836259,0.0002222,53.2208,351.6378,38.0022,322.1127,7.4297e-05,8.94e-06,0.0,0 STARLINK-3805,1 52377U 22045AY  22290.59296991  .00000894  00000-0  74297-4 0  9996,2 52377  53.2208 351.6378 0002222  38.0022 322.1127 15.08836259 28850,6917.892,95.438,541.294,538.22,0.0
52377.0,STARLINK-3805,PAYLOAD,2022-10-18 09:18:31,15.08826455,0.0002138,53.2206,348.0698,35.4907,324.6227,-5.719600000000001e-05,-1.198e-05,0.0,0 STARLINK-3805,1 52377U 22045AY  22291.38786227 -.00001198  00000-0 -57196-4 0  9999,2 52377  53.2206 348.0698 0002138  35.4907 324.6227 15.08826455 28970,6917.922,95.438,541.266,538.308,0.0
52377.0,STARLINK-3805,PAYLOAD,2022-10-19 12:20:04,15.08831541,0.0002185,53.2206,343.0148,34.2527,325.8606,-8.7528e-06,-4.28e-06,0.0,0 STARLINK-3805,1 52377U 22045AY  22292.51394397 -.00000428  00000-0 -87528-5 0  9996,2 52377  53.2206 343.0148 0002185  34.2527 325.8606 15.08831541 29148,6917.906,95.438,541.283,538.26,0.0
52377.0,STARLINK-3805,PAYLOAD,2022-10-20 12:10:49,15.08860548,0.0002075,53.2207,338.55300000000005,41.7701,318.3449,0.00033244,5.01e-05,0.0,0 STARLINK-3805,1 52377U 22045AY  22293.50751494  .00005010  00000-0  33244-3 0  9995,2 52377  53.2207 338.5530 0002075  41.7701 318.3449 15.08860548 29295,6917.818,95.436,541.118,538.247,0.0
52377.0,STARLINK-3805,PAYLOAD,2022-10-20 20:07:46,15.08843359,0.0002379999999999,53.2204,337.0679,36.6125,323.5029,8.1652e-05,1.012e-05,0.0,0 STARLINK-3805,1 52377U 22045AY  22293.83873302  .00001012  00000-0  81652-4 0  9999,2 52377  53.2204 337.0679 0002380  36.6125 323.5029 15.08843359 29341,6917.87,95.437,541.382,538.089,0.0
52377.0,STARLINK-3805,PAYLOAD,2022-10-21 12:01:38,15.08832358,0.0002839999999999,53.2203,334.098,29.3129,330.8022,0.00013614,1.878e-05,0.0,0 STARLINK-3805,1 52377U 22045AY  22294.50113630  .00001878  00000-0  13614-3 0  9997,2 52377  53.2203 334.0980 0002840  29.3129 330.8022 15.08832358 29448,6917.904,95.438,541.7330000000002,537.804,0.0
52377.0,STARLINK-3805,PAYLOAD,2022-10-21 19:58:33,15.08842358,0.0002396999999999,53.2205,332.6086,37.4658,322.6501,8.6825e-05,1.094e-05,0.0,0 STARLINK-3805,1 52377U 22045AY  22294.83233021  .00001094  00000-0  86825-4 0  9995,2 52377  53.2205 332.6086 0002397  37.4658 322.6501 15.08842358 29492,6917.873000000001,95.437,541.396,538.08,0.0
52377.0,STARLINK-3805,PAYLOAD,2022-10-22 11:52:25,15.08840286,0.0001841,53.2222,329.6343,48.639,311.476,-0.00011011,-2.04e-05,0.0,0 STARLINK-3805,1 52377U 22045AY  22295.49473550 -.00002040  00000-0 -11011-3 0  9999,2 52377  53.2222 329.6343 0001841  48.6390 311.4760 15.08840286 29595,6917.88,95.438,541.018,538.471,0.0
52377.0,STARLINK-3805,PAYLOAD,2022-10-22 19:49:21,15.08843386,0.000226,53.221,328.1467,39.2671,320.8485,-0.00024664,-4.212e-05,0.0,0 STARLINK-3805,1 52377U 22045AY  22295.82593765 -.00004212  00000-0 -24664-3 0  9998,2 52377  53.2210 328.1467 0002260  39.2671 320.8485 15.08843386 29645,6917.87,95.437,541.298,538.172,0.0
52377.0,STARLINK-3805,PAYLOAD,2022-10-23 08:32:25,15.08843895,0.0002213,53.2196,325.7686,35.7009,324.4131,-2.4647e-05,-6.81e-06,0.0,0 STARLINK-3805,1 52377U 22045AY  22296.35585144 -.00000681  00000-0 -24647-4 0  9997,2 52377  53.2196 325.7686 0002213  35.7009 324.4131 15.08843895 29720,6917.868,95.437,541.264,538.203,0.0
52377.0,STARLINK-3805,PAYLOAD,2022-10-23 19:40:06,15.08848914,0.0002356999999999,53.2198,323.6878,38.4429,321.6731,0.00012617,1.721e-05,0.0,0 STARLINK-3805,1 52377U 22045AY  22296.81952365  .00001721  00000-0  12617-3 0  9998,2 52377  53.2198 323.6878 0002357  38.4429 321.6731 15.08848914 29796,6917.853,95.437,541.349,538.0880000000002,0.0
52377.0,STARLINK-3805,PAYLOAD,2022-10-24 08:23:12,15.08840366,0.000239,53.2206,321.3087,38.0116,322.1044,0.00010258,1.345e-05,0.0,0 STARLINK-3805,1 52377U 22045AY  22297.34944914  .00001345  00000-0  10258-3 0  9999,2 52377  53.2206 321.3087 0002390  38.0116 322.1044 15.08840366 29874,6917.879,95.438,541.398,538.091,0.0
52377.0,STARLINK-3805,PAYLOAD,2022-10-24 13:09:23,15.08819757,0.0002168,53.22,320.4155,37.912,322.2024,-4.6219e-05,-1.023e-05,0.0,0 STARLINK-3805,1 52377U 22045AY  22297.54818761 -.00001023  00000-0 -46219-4 0  9993,2 52377  53.2200 320.4155 0002168  37.9120 322.2024 15.08819757 29903,6917.941999999999,95.439,541.307,538.307,0.0
52377.0,STARLINK-3805,PAYLOAD,2022-10-25 11:24:48,15.08824646,0.0002334999999999,53.2197,316.2539,36.5545,323.5606,-7.2796e-05,-1.446e-05,0.0,0 STARLINK-3805,1 52377U 22045AY  22298.47555761 -.00001446  00000-0 -72796-4 0  9992,2 52377  53.2197 316.2539 0002335  36.5545 323.5606 15.08824646 30049,6917.927,95.439,541.408,538.177,0.0
52377.0,STARLINK-3805,PAYLOAD,2022-10-25 17:46:20,15.08829,0.0002343,53.2195,315.0649,35.8912,324.2237,-5.3067e-05,-1.133e-05,0.0,0 STARLINK-3805,1 52377U 22045AY  22298.74051653 -.00001133  00000-0 -53067-4 0  9996,2 52377  53.2195 315.0649 0002343  35.8912 324.2237 15.08829000 30086,6917.9140000000025,95.438,541.4,538.158,0.0
52377.0,STARLINK-3805,PAYLOAD,2022-10-26 04:54:02,15.08845395,0.0002721,53.2194,312.9828,43.9657,316.1552,-0.0001899999999999,-3.312e-05,0.0,0 STARLINK-3805,1 52377U 22045AY  22299.20419331 -.00003312  00000-0 -19000-3 0  9998,2 52377  53.2194 312.9828 0002721  43.9657 316.1552 15.08845395 30159,6917.864000000001,95.437,541.611,537.847,0.0
52377.0,STARLINK-3805,PAYLOAD,2022-10-26 09:40:11,15.08839301,0.0002343,53.2196,312.0911,32.6973,327.4164,-4.0283e-05,-9.29e-06,0.0,0 STARLINK-3805,1 52377U 22045AY  22299.40291356 -.00000929  00000-0 -40283-4 0  9994,2 52377  53.2196 312.0911 0002343  32.6973 327.4164 15.08839301 30188,6917.8830000000025,95.438,541.368,538.127,0.0
52377.0,STARLINK-3805,PAYLOAD,2022-10-26 17:37:08,15.08825961,0.0002395,53.2196,310.6043,34.8606,325.2543,0.00017797,2.544e-05,0.0,0 STARLINK-3805,1 52377U 22045AY  22299.73412077  .00002544  00000-0  17797-3 0  9991,2 52377  53.2196 310.6043 0002395  34.8606 325.2543 15.08825961 30232,6917.9230000000025,95.438,541.445,538.131,0.0
52377.0,STARLINK-3805,PAYLOAD,2022-10-26 23:58:40,15.08833297,0.0002362,53.2196,309.4147,34.5614,325.5531,0.00027672,4.118e-05,0.0,0 STARLINK-3805,1 52377U 22045AY  22299.99907618  .00004118  00000-0  27672-3 0  9991,2 52377  53.2196 309.4147 0002362  34.5614 325.5531 15.08833297 30278,6917.901,95.438,541.4,538.132,0.0
52377.0,STARLINK-3805,PAYLOAD,2022-10-27 11:06:21,15.08848668,0.0002389,53.2196,307.3334,36.2912,323.8242,0.00034027,5.133e-05,0.0,0 STARLINK-3805,1 52377U 22045AY  22300.46274961  .00005133  00000-0  34027-3 0  9994,2 52377  53.2196 307.3334 0002389  36.2912 323.8242 15.08848668 30348,6917.854,95.437,541.372,538.066,0.0
52377.0,STARLINK-3805,PAYLOAD,2022-10-27 17:27:54,15.08851756,0.000245,53.2187,306.1437,36.8,323.316,0.00032622,4.909e-05,0.0,0 STARLINK-3805,1 52377U 22045AY  22300.72771083  .00004909  00000-0  32622-3 0  9999,2 52377  53.2187 306.1437 0002450  36.8000 323.3160 15.08851756 30382,6917.844,95.437,541.404,538.015,0.0
52377.0,STARLINK-3805,PAYLOAD,2022-10-28 07:46:21,15.08855559,0.0002479,53.2185,303.4673,37.7349,322.3817,0.00018994,2.737e-05,0.0,0 STARLINK-3805,1 52377U 22045AY  22301.32386436  .00002737  00000-0  18994-3 0  9993,2 52377  53.2185 303.4673 0002479  37.7349 322.3817 15.08855559 30472,6917.833000000001,95.437,541.413,537.9830000000002,0.0
52377.0,STARLINK-3805,PAYLOAD,2022-10-28 17:18:40,15.0885255,0.0002429,53.2185,301.6833,37.4412,322.6749,7.8255e-05,9.58e-06,0.0,0 STARLINK-3805,1 52377U 22045AY  22301.72130306  .00000958  00000-0  78255-4 0  9990,2 52377  53.2185 301.6833 0002429  37.4412 322.6749 15.08852550 30535,6917.842,95.437,541.387,538.0269999999998,0.0
52377.0,STARLINK-3805,PAYLOAD,2022-10-29 09:12:31,15.08853608,0.0002315,53.2186,298.7095,34.6749,325.4394,5.8025e-05,6.36e-06,0.0,0 STARLINK-3805,1 52377U 22045AY  22302.38369648  .00000636  00000-0  58025-4 0  9992,2 52377  53.2186 298.7095 0002315  34.6749 325.4394 15.08853608 30631,6917.839,95.437,541.305,538.102,0.0
52377.0,STARLINK-3805,PAYLOAD,2022-10-29 17:09:27,15.0884303,0.0002305,53.2186,297.2226,35.1412,324.9732,-0.00011763,-2.1600000000000007e-05,0.0,0 STARLINK-3805,1 52377U 22045AY  22302.71489846 -.00002160  00000-0 -11763-3 0  9995,2 52377  53.2186 297.2226 0002305  35.1412 324.9732 15.08843030 30686,6917.871,95.437,541.331,538.1419999999998,0.0
52377.0,STARLINK-3805,PAYLOAD,2022-10-30 10:38:41,15.08845298,0.0002522,53.2191,293.9526,30.936,329.17800000000005,1.5080999999999992e-05,-4.8e-07,0.0,0 STARLINK-3805,1 52377U 22045AY  22303.44353790 -.00000048  00000-0  15081-4 0  9994,2 52377  53.2191 293.9526 0002522  30.9360 329.1780 15.08845298 30794,6917.864000000001,95.437,541.474,537.985,0.0
